{
  "type": "FeatureCollection",
  "features": [
    {
      "type": "Feature",
      "properties": {
        "norad_id": 66639,
        "name": "STARLINK-35908",
        "group": "last-30-days",
        "lat": 17.016870265803384,
        "lon": -75.85102839055676,
        "alt_km": 445.27950371047245,
        "timestamp": "2025-12-27T10:28:57.513474+00:00",
        "meta_object_name": "STARLINK-35908",
        "meta_object_id": "2025-271Y",
        "meta_epoch": "2025-12-26T18:13:06.311712",
        "meta_mean_motion": 15.39628094,
        "meta_eccentricity": 0.00010757,
        "meta_inclination": 53.1602,
        "meta_ra_of_asc_node": 120.608,
        "meta_arg_of_pericenter": 79.5752,
        "meta_mean_anomaly": 280.5374,
        "meta_ephemeris_type": 0,
        "meta_classification_type": "U",
        "meta_norad_cat_id": 66639,
        "meta_element_set_no": 999,
        "meta_rev_at_epoch": 637,
        "meta_bstar": 0.0012582205,
        "meta_mean_motion_dot": 0.00050274,
        "meta_mean_motion_ddot": 0,
        "tle_line1": "1 66639U 25271Y   25360.75910083  .00050274  00000+0  12582-2 0  9993",
        "tle_line2": "2 66639  53.1602 120.6080 0001075  79.5752 280.5374 15.39628094  6376"
      },
      "geometry": {
        "type": "Point",
        "coordinates": [
          -75.85102839055676,
          17.016870265803384
        ]
      }
    },
    {
      "type": "Feature",
      "properties": {
        "norad_id": 66640,
        "name": "STARLINK-35921",
        "group": "last-30-days",
        "lat": 49.92919812403152,
        "lon": -125.51178635687316,
        "alt_km": 439.57568609994723,
        "timestamp": "2025-12-27T10:28:57.513489+00:00",
        "meta_object_name": "STARLINK-35921",
        "meta_object_id": "2025-271Z",
        "meta_epoch": "2025-12-26T15:19:31.516608",
        "meta_mean_motion": 15.39614415,
        "meta_eccentricity": 0.0001155,
        "meta_inclination": 53.1606,
        "meta_ra_of_asc_node": 121.2774,
        "meta_arg_of_pericenter": 79.5754,
        "meta_mean_anomaly": 280.5381,
        "meta_ephemeris_type": 0,
        "meta_classification_type": "U",
        "meta_norad_cat_id": 66640,
        "meta_element_set_no": 999,
        "meta_rev_at_epoch": 635,
        "meta_bstar": 0.0013606,
        "meta_mean_motion_dot": 0.00054404,
        "meta_mean_motion_ddot": 0,
        "tle_line1": "1 66640U 25271Z   25360.63855922  .00054404  00000+0  13606-2 0  9999",
        "tle_line2": "2 66640  53.1606 121.2774 0001155  79.5754 280.5381 15.39614415  6358"
      },
      "geometry": {
        "type": "Point",
        "coordinates": [
          -125.51178635687316,
          49.92919812403152
        ]
      }
    },
    {
      "type": "Feature",
      "properties": {
        "norad_id": 66641,
        "name": "STARLINK-35923",
        "group": "last-30-days",
        "lat": -50.53882847705424,
        "lon": 51.554566234203946,
        "alt_km": 452.65766767653804,
        "timestamp": "2025-12-27T10:28:57.513500+00:00",
        "meta_object_name": "STARLINK-35923",
        "meta_object_id": "2025-271AA",
        "meta_epoch": "2025-12-27T04:00:01.998720",
        "meta_mean_motion": 15.39553944,
        "meta_eccentricity": 9.71e-05,
        "meta_inclination": 53.1604,
        "meta_ra_of_asc_node": 118.4328,
        "meta_arg_of_pericenter": 79.5299,
        "meta_mean_anomaly": 147.9269,
        "meta_ephemeris_type": 0,
        "meta_classification_type": "U",
        "meta_norad_cat_id": 66641,
        "meta_element_set_no": 999,
        "meta_rev_at_epoch": 601,
        "meta_bstar": 0.0020931,
        "meta_mean_motion_dot": 0.00084067,
        "meta_mean_motion_ddot": 0,
        "tle_line1": "1 66641U 25271AA  25361.16668980  .00084067  00000+0  20931-2 0  9992",
        "tle_line2": "2 66641  53.1604 118.4328 0000971  79.5299 147.9269 15.39553944  6012"
      },
      "geometry": {
        "type": "Point",
        "coordinates": [
          51.554566234203946,
          -50.53882847705424
        ]
      }
    },
    {
      "type": "Feature",
      "properties": {
        "norad_id": 66642,
        "name": "STARLINK-35926",
        "group": "last-30-days",
        "lat": -52.281802681451296,
        "lon": 12.989645821873989,
        "alt_km": 452.79112885437826,
        "timestamp": "2025-12-27T10:28:57.513510+00:00",
        "meta_object_name": "STARLINK-35926",
        "meta_object_id": "2025-271AB",
        "meta_epoch": "2025-12-27T04:00:01.998720",
        "meta_mean_motion": 15.39551508,
        "meta_eccentricity": 0.0001033,
        "meta_inclination": 53.1605,
        "meta_ra_of_asc_node": 118.4812,
        "meta_arg_of_pericenter": 66.5357,
        "meta_mean_anomaly": 137.0156,
        "meta_ephemeris_type": 0,
        "meta_classification_type": "U",
        "meta_norad_cat_id": 66642,
        "meta_element_set_no": 999,
        "meta_rev_at_epoch": 601,
        "meta_bstar": 0.0021347,
        "meta_mean_motion_dot": 0.00085759,
        "meta_mean_motion_ddot": 0,
        "tle_line1": "1 66642U 25271AB  25361.16668980  .00085759  00000+0  21347-2 0  9994",
        "tle_line2": "2 66642  53.1605 118.4812 0001033  66.5357 137.0156 15.39551508  6012"
      },
      "geometry": {
        "type": "Point",
        "coordinates": [
          12.989645821873989,
          -52.281802681451296
        ]
      }
    },
    {
      "type": "Feature",
      "properties": {
        "norad_id": 66643,
        "name": "STARLINK-35918",
        "group": "last-30-days",
        "lat": -3.4167355938533834,
        "lon": -60.071248038685155,
        "alt_km": 448.51532983891775,
        "timestamp": "2025-12-27T10:28:57.513520+00:00",
        "meta_object_name": "STARLINK-35918",
        "meta_object_id": "2025-271AC",
        "meta_epoch": "2025-12-27T03:27:16.593984",
        "meta_mean_motion": 15.39666925,
        "meta_eccentricity": 6.03e-05,
        "meta_inclination": 53.1613,
        "meta_ra_of_asc_node": 118.7437,
        "meta_arg_of_pericenter": 66.052,
        "meta_mean_anomaly": 294.0548,
        "meta_ephemeris_type": 0,
        "meta_classification_type": "U",
        "meta_norad_cat_id": 66643,
        "meta_element_set_no": 999,
        "meta_rev_at_epoch": 643,
        "meta_bstar": 0.0014514,
        "meta_mean_motion_dot": 0.0005819,
        "meta_mean_motion_ddot": 0,
        "tle_line1": "1 66643U 25271AC  25361.14394206  .00058190  00000+0  14514-2 0  9997",
        "tle_line2": "2 66643  53.1613 118.7437 0000603  66.0520 294.0548 15.39666925  6432"
      },
      "geometry": {
        "type": "Point",
        "coordinates": [
          -60.071248038685155,
          -3.4167355938533834
        ]
      }
    },
    {
      "type": "Feature",
      "properties": {
        "norad_id": 66644,
        "name": "STARLINK-35938",
        "group": "last-30-days",
        "lat": -51.88375174934246,
        "lon": 10.070357103029592,
        "alt_km": 452.78700833421044,
        "timestamp": "2025-12-27T10:28:57.513532+00:00",
        "meta_object_name": "STARLINK-35938",
        "meta_object_id": "2025-271AD",
        "meta_epoch": "2025-12-27T04:00:01.998720",
        "meta_mean_motion": 15.39552957,
        "meta_eccentricity": 0.0001013,
        "meta_inclination": 53.1604,
        "meta_ra_of_asc_node": 118.4854,
        "meta_arg_of_pericenter": 75.1896,
        "meta_mean_anomaly": 126.5154,
        "meta_ephemeris_type": 0,
        "meta_classification_type": "U",
        "meta_norad_cat_id": 66644,
        "meta_element_set_no": 999,
        "meta_rev_at_epoch": 591,
        "meta_bstar": 0.0020673,
        "meta_mean_motion_dot": 0.00083011,
        "meta_mean_motion_ddot": 0,
        "tle_line1": "1 66644U 25271AD  25361.16668980  .00083011  00000+0  20673-2 0  9996",
        "tle_line2": "2 66644  53.1604 118.4854 0001013  75.1896 126.5154 15.39552957  5919"
      },
      "geometry": {
        "type": "Point",
        "coordinates": [
          10.070357103029592,
          -51.88375174934246
        ]
      }
    },
    {
      "type": "Feature",
      "properties": {
        "norad_id": 66645,
        "name": "SHENZHOU-22",
        "group": "last-30-days",
        "lat": -25.499154871646795,
        "lon": -105.24921802159035,
        "alt_km": 396.1583095382948,
        "timestamp": "2025-12-27T10:28:57.513544+00:00",
        "meta_object_name": "SHENZHOU-22",
        "meta_object_id": "2025-272A",
        "meta_epoch": "2025-12-26T22:21:45.161280",
        "meta_mean_motion": 15.59735336,
        "meta_eccentricity": 0.00087329,
        "meta_inclination": 41.4675,
        "meta_ra_of_asc_node": 290.5114,
        "meta_arg_of_pericenter": 154.941,
        "meta_mean_anomaly": 205.1854,
        "meta_ephemeris_type": 0,
        "meta_classification_type": "U",
        "meta_norad_cat_id": 66645,
        "meta_element_set_no": 999,
        "meta_rev_at_epoch": 26598,
        "meta_bstar": 0.00023104085,
        "meta_mean_motion_dot": 0.00018761,
        "meta_mean_motion_ddot": 0,
        "tle_line1": "1 66645U 25272A   25360.93177270  .00018761  00000+0  23104-3 0  9992",
        "tle_line2": "2 66645  41.4675 290.5114 0008732 154.9410 205.1854 15.59735336265984"
      },
      "geometry": {
        "type": "Point",
        "coordinates": [
          -105.24921802159035,
          -25.499154871646795
        ]
      }
    }
  ]
}